[{"OBJECT_NAME":"STARLINK-30203","OBJECT_ID":"2023-113D","EPOCH":"2026-03-09T22:00:01.999584","MEAN_MOTION":15.26747693,"ECCENTRICITY":0.00013291,"INCLINATION":43.001,"RA_OF_ASC_NODE":14.295,"ARG_OF_PERICENTER":263.4771,"MEAN_ANOMALY":169.5475,"EPHEMERIS_TYPE":0,"CLASSIFICATION_TYPE":"U","NORAD_CAT_ID":57498,"ELEMENT_SET_NO":999,"REV_AT_EPOCH":578,"BSTAR":0.00023344295,"MEAN_MOTION_DOT":6.009e-5,"MEAN_MOTION_DDOT":0},{"OBJECT_NAME":"REAL","OBJECT_ID":"2025-154G","EPOCH":"2026-03-09T17:20:09.670560","MEAN_MOTION":15.28408058,"ECCENTRICITY":0.00018528,"INCLINATION":97.4133,"RA_OF_ASC_NODE":137.2581,"ARG_OF_PERICENTER":118.5876,"MEAN_ANOMALY":241.555,"EPHEMERIS_TYPE":0,"CLASSIFICATION_TYPE":"U","NORAD_CAT_ID":64875,"ELEMENT_SET_NO":999,"REV_AT_EPOCH":3483,"BSTAR":0.0008290401,"MEAN_MOTION_DOT":0.00022901,"MEAN_MOTION_DDOT":0}]
